{
  "type": "FeatureCollection",
  "features": [
    {
      "type": "Feature",
      "properties": {
        "norad_id": 66406,
        "name": "STARLINK-34840",
        "group": "last-30-days",
        "lat": -53.13728465340202,
        "lon": -142.46050265049305,
        "alt_km": 424.7681348386959,
        "timestamp": "2025-12-03T10:52:56.221088+00:00",
        "meta_object_name": "STARLINK-34840",
        "meta_object_id": "2025-257AC",
        "meta_epoch": "2025-12-02T16:00:03.000096",
        "meta_mean_motion": 15.49322953,
        "meta_eccentricity": 0.00013324,
        "meta_inclination": 53.1585,
        "meta_ra_of_asc_node": 311.9125,
        "meta_arg_of_pericenter": 90.0079,
        "meta_mean_anomaly": 109.2718,
        "meta_ephemeris_type": 0,
        "meta_classification_type": "U",
        "meta_norad_cat_id": 66406,
        "meta_element_set_no": 999,
        "meta_rev_at_epoch": 481,
        "meta_bstar": -0.0013163628,
        "meta_mean_motion_dot": -0.00073016,
        "meta_mean_motion_ddot": 0,
        "tle_line1": "1 66406U 25257AC  25336.66670139 -.00073016  00000+0 -13164-2 0  9995",
        "tle_line2": "2 66406  53.1585 311.9125 0001332  90.0079 109.2718 15.49322953  4811"
      },
      "geometry": {
        "type": "Point",
        "coordinates": [
          -142.46050265049305,
          -53.13728465340202
        ]
      }
    },
    {
      "type": "Feature",
      "properties": {
        "norad_id": 66407,
        "name": "STARLINK-35686",
        "group": "last-30-days",
        "lat": -52.9501227130776,
        "lon": -148.54716740406226,
        "alt_km": 424.3963713546418,
        "timestamp": "2025-12-03T10:52:56.221103+00:00",
        "meta_object_name": "STARLINK-35686",
        "meta_object_id": "2025-257AD",
        "meta_epoch": "2025-12-03T05:05:40.648128",
        "meta_mean_motion": 15.49335926,
        "meta_eccentricity": 0.0001552,
        "meta_inclination": 53.1587,
        "meta_ra_of_asc_node": 309.3115,
        "meta_arg_of_pericenter": 98.1738,
        "meta_mean_anomaly": 261.9447,
        "meta_ephemeris_type": 0,
        "meta_classification_type": "U",
        "meta_norad_cat_id": 66407,
        "meta_element_set_no": 999,
        "meta_rev_at_epoch": 490,
        "meta_bstar": 0.0014034,
        "meta_mean_motion_dot": 0.00078465,
        "meta_mean_motion_ddot": 0,
        "tle_line1": "1 66407U 25257AD  25337.21227602  .00078465  00000+0  14034-2 0  9999",
        "tle_line2": "2 66407  53.1587 309.3115 0001552  98.1738 261.9447 15.49335926  4908"
      },
      "geometry": {
        "type": "Point",
        "coordinates": [
          -148.54716740406226,
          -52.9501227130776
        ]
      }
    },
    {
      "type": "Feature",
      "properties": {
        "norad_id": 66408,
        "name": "STARLINK-35679",
        "group": "last-30-days",
        "lat": -53.08614740898723,
        "lon": -145.40647141089892,
        "alt_km": 424.39227610478247,
        "timestamp": "2025-12-03T10:52:56.221115+00:00",
        "meta_object_name": "STARLINK-35679",
        "meta_object_id": "2025-257AE",
        "meta_epoch": "2025-12-03T05:05:11.026752",
        "meta_mean_motion": 15.49327937,
        "meta_eccentricity": 0.0001435,
        "meta_inclination": 53.159,
        "meta_ra_of_asc_node": 309.3108,
        "meta_arg_of_pericenter": 91.2895,
        "meta_mean_anomaly": 268.8279,
        "meta_ephemeris_type": 0,
        "meta_classification_type": "U",
        "meta_norad_cat_id": 66408,
        "meta_element_set_no": 999,
        "meta_rev_at_epoch": 490,
        "meta_bstar": 0.0011104,
        "meta_mean_motion_dot": 0.00061839,
        "meta_mean_motion_ddot": 0,
        "tle_line1": "1 66408U 25257AE  25337.21193318  .00061839  00000+0  11104-2 0  9998",
        "tle_line2": "2 66408  53.1590 309.3108 0001435  91.2895 268.8279 15.49327937  4905"
      },
      "geometry": {
        "type": "Point",
        "coordinates": [
          -145.40647141089892,
          -53.08614740898723
        ]
      }
    },
    {
      "type": "Feature",
      "properties": {
        "norad_id": 66409,
        "name": "CHUTIAN-2 A",
        "group": "last-30-days",
        "lat": -48.990214762722445,
        "lon": -147.25925844671647,
        "alt_km": 724.1325068542756,
        "timestamp": "2025-12-03T10:52:56.221126+00:00",
        "meta_object_name": "CHUTIAN-2 A",
        "meta_object_id": "2025-256A",
        "meta_epoch": "2025-12-03T04:51:27.861120",
        "meta_mean_motion": 14.49915942,
        "meta_eccentricity": 0.0013281,
        "meta_inclination": 98.2773,
        "meta_ra_of_asc_node": 42.1313,
        "meta_arg_of_pericenter": 206.6993,
        "meta_mean_anomaly": 153.3519,
        "meta_ephemeris_type": 0,
        "meta_classification_type": "U",
        "meta_norad_cat_id": 66409,
        "meta_element_set_no": 999,
        "meta_rev_at_epoch": 349,
        "meta_bstar": 3.4757e-05,
        "meta_mean_motion_dot": 9.1e-07,
        "meta_mean_motion_ddot": 0,
        "tle_line1": "1 66409U 25256A   25337.20240580  .00000091  00000+0  34757-4 0  9995",
        "tle_line2": "2 66409  98.2773  42.1313 0013281 206.6993 153.3519 14.49915942  3498"
      },
      "geometry": {
        "type": "Point",
        "coordinates": [
          -147.25925844671647,
          -48.990214762722445
        ]
      }
    },
    {
      "type": "Feature",
      "properties": {
        "norad_id": 66410,
        "name": "CHUTIAN-2 B",
        "group": "last-30-days",
        "lat": -67.9735631178643,
        "lon": 63.509422248808846,
        "alt_km": 728.0500156072494,
        "timestamp": "2025-12-03T10:52:56.221137+00:00",
        "meta_object_name": "CHUTIAN-2 B",
        "meta_object_id": "2025-256B",
        "meta_epoch": "2025-12-02T21:57:45.179136",
        "meta_mean_motion": 14.51003588,
        "meta_eccentricity": 0.0013269,
        "meta_inclination": 98.28,
        "meta_ra_of_asc_node": 41.8824,
        "meta_arg_of_pericenter": 211.6733,
        "meta_mean_anomaly": 148.3664,
        "meta_ephemeris_type": 0,
        "meta_classification_type": "U",
        "meta_norad_cat_id": 66410,
        "meta_element_set_no": 999,
        "meta_rev_at_epoch": 345,
        "meta_bstar": 0.00024626,
        "meta_mean_motion_dot": 9.31e-06,
        "meta_mean_motion_ddot": 0,
        "tle_line1": "1 66410U 25256B   25336.91510624  .00000931  00000+0  24626-3 0  9999",
        "tle_line2": "2 66410  98.2800  41.8824 0013269 211.6733 148.3664 14.51003588  3456"
      },
      "geometry": {
        "type": "Point",
        "coordinates": [
          63.509422248808846,
          -67.9735631178643
        ]
      }
    },
    {
      "type": "Feature",
      "properties": {
        "norad_id": 66411,
        "name": "ZK-1A R/B",
        "group": "last-30-days",
        "lat": 2.615843646979613,
        "lon": 44.1768937237108,
        "alt_km": 551.8756566721622,
        "timestamp": "2025-12-03T10:52:56.221148+00:00",
        "meta_object_name": "ZK-1A R/B",
        "meta_object_id": "2025-256C",
        "meta_epoch": "2025-12-03T04:28:24.847680",
        "meta_mean_motion": 15.01610086,
        "meta_eccentricity": 0.0229656,
        "meta_inclination": 98.325,
        "meta_ra_of_asc_node": 44.2737,
        "meta_arg_of_pericenter": 276.9152,
        "meta_mean_anomaly": 80.5997,
        "meta_ephemeris_type": 0,
        "meta_classification_type": "U",
        "meta_norad_cat_id": 66411,
        "meta_element_set_no": 999,
        "meta_rev_at_epoch": 361,
        "meta_bstar": 0.000771,
        "meta_mean_motion_dot": 0.00017696,
        "meta_mean_motion_ddot": 0,
        "tle_line1": "1 66411U 25256C   25337.18639870  .00017696  00000+0  77100-3 0  9996",
        "tle_line2": "2 66411  98.3250  44.2737 0229656 276.9152  80.5997 15.01610086  3612"
      },
      "geometry": {
        "type": "Point",
        "coordinates": [
          44.1768937237108,
          2.615843646979613
        ]
      }
    },
    {
      "type": "Feature",
      "properties": {
        "norad_id": 66412,
        "name": "HULIANWANG DIGUI 13A",
        "group": "last-30-days",
        "lat": 41.88395534875574,
        "lon": -10.106904619026851,
        "alt_km": 808.7236844295448,
        "timestamp": "2025-12-03T10:52:56.221159+00:00",
        "meta_object_name": "HULIANWANG DIGUI 13A",
        "meta_object_id": "2025-258A",
        "meta_epoch": "2025-12-02T16:03:56.020032",
        "meta_mean_motion": 14.23490832,
        "meta_eccentricity": 0.00139914,
        "meta_inclination": 50.0039,
        "meta_ra_of_asc_node": 304.3564,
        "meta_arg_of_pericenter": 322.3046,
        "meta_mean_anomaly": 37.6886,
        "meta_ephemeris_type": 0,
        "meta_classification_type": "U",
        "meta_norad_cat_id": 66412,
        "meta_element_set_no": 999,
        "meta_rev_at_epoch": 322,
        "meta_bstar": 0.00010475171,
        "meta_mean_motion_dot": 8.1e-07,
        "meta_mean_motion_ddot": 0,
        "tle_line1": "1 66412U 25258A   25336.66939838  .00000081  00000+0  10475-3 0  9990",
        "tle_line2": "2 66412  50.0039 304.3564 0013991 322.3046  37.6886 14.23490832  3227"
      },
      "geometry": {
        "type": "Point",
        "coordinates": [
          -10.106904619026851,
          41.88395534875574
        ]
      }
    }
  ]
}